#aV2024 12  6  0  0  0.00000000     288 DD+AD WGS84 FIT  NGA
## 2343 432000.00000000   300.00000000 60650 0.0000000000000
+   31     2  3  4  5  6  7  8  9 10 11 12 13 14 15 16 17 18
+         19 20 21 22 23 24 25 26 27 28 29 30 31 32  0  0  0
+          0  0  0  0  0  0  0  0  0  0  0  0  0  0  0  0  0
+          0  0  0  0  0  0  0  0  0  0  0  0  0  0  0  0  0
+          0  0  0  0  0  0  0  0  0  0  0  0  0  0  0  0  0
++         2  2  2  2  2  2  2  2  2  2  2  2  2  2  2  2  2
++         2  2  2  2  2  2  2  2  2  2  2  2  2  2  0  0  0
++         0  0  0  0  0  0  0  0  0  0  0  0  0  0  0  0  0
++         0  0  0  0  0  0  0  0  0  0  0  0  0  0  0  0  0
++         0  0  0  0  0  0  0  0  0  0  0  0  0  0  0  0  0
%c cc cc ccc ccc cccc cccc cccc cccc ccccc ccccc ccccc ccccc
%c cc cc ccc ccc cccc cccc cccc cccc ccccc ccccc ccccc ccccc
%f  0.0000000  0.000000000  0.00000000000  0.000000000000000
%f  0.0000000  0.000000000  0.00000000000  0.000000000000000
%i    0    0    0    0      0      0      0      0         0
%i    0    0    0    0      0      0      0      0         0
/*      NGA, ST. LOUIS,MO.                                  
/*   EPHEMERIS COMPUTED FROM 2 DAYS OF DATA                 
/*   EPOCHA v9 SMOOTHER                                     
/*   G2296 IERS2010 SATIGS SATAPC                           
*  2024 12  6  8 40  0.00000000
P  2 -10037.586664  19919.465910 -13659.781969   -298.434246                    
V  2 -15867.009108   9393.783540  24883.226477      0.087614                    
P  3   2258.485861  16572.762156 -20823.917340    617.904928                    
V  3 -23415.759403 -11239.549932 -11469.642568      0.092229                    
P  4   -734.854681  26393.095076  -1959.073522    491.315699                    
V  4  -2823.430292  -2450.791614 -31850.111563      0.062441                    
P  5  13830.731613  -9154.916516  20583.925561   -195.167728                    
V  5  23881.057295  11474.468563 -10787.726921     -0.011694                    
P  6  22071.389509  -2656.562393 -14551.641094    -22.988665                    
V  6 -14888.724841  11075.011401 -24367.460431     -0.292563                    
P  7   6512.069764  14415.237772  21840.552772    -16.658134                    
V  7 -22440.096348  14207.940120  -3203.975935      0.015176                    
P  8  -7118.538912  21805.035003  12870.266541    431.735057                    
V  8  -4484.613140 -16383.291318  25481.526396      0.093216                    
P  9   6728.047223  24769.423877   6595.755113    475.098887                    
V  9  -2052.887215   8717.135612 -30286.480469      0.164891                    
P 10 -24476.229931 -10368.377179  -2733.280169   -223.335731                    
V 10  -2542.613460  -3190.646375  31856.850343     -0.151275                    
P 11  23531.611525 -11981.237168  -2479.826101   -752.232793                    
V 11  -1372.277616   3957.469568 -31700.218282     -0.007187                    
P 12   2999.897155 -15677.858903 -21523.834960   -556.621971                    
V 12  23198.597969  13122.845406  -6364.101337     -0.024035                    
P 13  13127.882064 -14807.813700  17364.273226    688.895463                    
V 13   -223.584453  22634.992401  19444.960539      0.014854                    
P 14  23356.069270  12901.461631    674.630293    554.526667                    
V 14  -2166.341664   2388.157954  31226.056503      0.077468                    
P 15   3891.011235 -23054.560587  11941.699009    236.250948                    
V 15   6584.350050  15018.464822  25878.022782      0.045630                    
P 16 -18748.589519   3497.995213  18318.451864   -110.313247                    
V 16 -19590.161257 -13631.027583 -16678.555149      0.096386                    
P 17  12903.955761  13075.763703 -18692.802260    530.621018                    
V 17  -1561.016447  24664.684276  16021.517832     -0.156066                    
P 18  -8441.855590 -12336.233640  21988.108265   -660.537207                    
V 18  23532.390076 -14801.103613    510.882964      0.001852                    
P 19  15056.042532   2494.811001 -21894.603095    570.854951                    
V 19  -1212.973886  27406.279747   1880.138323      0.042652                    
P 20  22748.828509  -3112.978375  13311.163918    368.129869                    
V 20  15474.262995   7049.514287 -25087.594152     -0.003315                    
P 21 -14830.638042  19454.637322  -8444.295126     95.677368                    
V 21 -11268.270451   4468.937259  29858.983678     -0.010201                    
P 22  23717.276465   8848.986613  -7102.804658    -84.497533                    
V 22   6588.472443   7627.318253  30171.616032     -0.025845                    
P 23 -18341.038533 -16321.030857  10462.975893    377.861266                    
V 23  12600.335858   4034.552303  28263.747486      0.077672                    
P 24  10704.445092 -20791.973219 -12669.234672   -475.608791                    
V 24  14062.358297  -7398.659436  25346.162024      0.028063                    
P 25 -11640.124434 -18214.787076 -15961.815322    498.391919                    
V 25  18460.415131   6707.769123 -21336.948894     -0.004017                    
P 26 -24885.613238  -2421.799526   9335.016480      1.282627                    
V 26 -10021.180450  -7367.738465 -27698.861812     -0.137766                    
P 27 -12864.220142  11963.766374  19484.932256    -34.393982                    
V 27  -3258.311402 -25374.981655  13650.529702      0.002456                    
P 28 -21176.842400   1232.478529 -16002.284277   -500.183951                    
V 28  15496.747616 -13233.453348 -21543.081090     -0.110552                    
P 29  -4211.958455 -25268.514774   6728.672737   -558.197728                    
V 29   2694.099871  -8578.186335 -30454.757212      0.030659                    
P 30  17368.719090   5751.142393  19490.451684   -267.204043                    
V 30 -19632.291205  14617.298996  13014.385633      0.080207                    
P 31 -24169.649067   8884.173657  -7489.180699   -220.495899                    
V 31   6373.808668  -6963.560157 -29451.102702      0.007012                    
P 32 -14594.538439  -9170.060536 -20042.331313   -563.373023                    
V 32   -796.093716 -25884.913242  12084.572374      0.058389                    
EOF
